{
"type": "FeatureCollection",
"name": "city_boundary",
"crs": { "type": "name", "properties": { "name": "urn:ogc:def:crs:OGC:1.3:CRS84" } },
"features": [
{ "type": "Feature", "properties": { "name": "sample_city" }, "geometry": { "type": "Polygon", "coordinates": [ [ [ 77.27, 28.6 ], [ 77.26979522755488, 28.591658495364339 ], [ 77.269181403534262, 28.583337086143978 ], [ 77.268160006694004, 28.575055819342591 ], [ 77.26673349766854, 28.566834645257259 ], [ 77.264905313043073, 28.558693369416446 ], [ 77.262679857074474, 28.550651604866744 ], [ 77.260062491081115, 28.542728724923325 ], [ 77.257059520526909, 28.534943816497936 ], [ 77.253678179830985, 28.527315634116853 ], [ 77.249926614939213, 28.519862554739582 ], [ 77.245813863700036, 28.512602533487154 ], [ 77.241349834091423, 28.505553060386667 ], [ 77.236545280351706, 28.498731118236286 ], [ 77.231411777071656, 28.492153141692182 ], [ 77.225961691310332, 28.485834977676006 ], [ 77.220208152801703, 28.479791847198289 ], [ 77.214165022323982, 28.474038308689657 ], [ 77.207846858307818, 28.468588222928336 ], [ 77.20126888176371, 28.46345471964829 ], [ 77.194446939613329, 28.458650165908569 ], [ 77.187397466512849, 28.454186136299953 ], [ 77.180137445260414, 28.450073385060779 ], [ 77.172684365883143, 28.446321820169015 ], [ 77.16505618350206, 28.442940479473084 ], [ 77.157271275076667, 28.439937508918888 ], [ 77.149348395133259, 28.437320142925525 ], [ 77.141306630583543, 28.435094686956926 ], [ 77.133165354742729, 28.433266502331453 ], [ 77.124944180657408, 28.431839993305989 ], [ 77.116662913856018, 28.430818596465727 ], [ 77.108341504635661, 28.430204772445123 ], [ 77.1, 28.43 ], [ 77.091658495364328, 28.430204772445123 ], [ 77.08333708614397, 28.430818596465727 ], [ 77.07505581934258, 28.431839993305989 ], [ 77.066834645257259, 28.433266502331453 ], [ 77.058693369416446, 28.435094686956926 ], [ 77.050651604866729, 28.437320142925525 ], [ 77.042728724923322, 28.439937508918888 ], [ 77.034943816497929, 28.442940479473084 ], [ 77.027315634116846, 28.446321820169015 ], [ 77.019862554739575, 28.450073385060779 ], [ 77.01260253348714, 28.454186136299953 ], [ 77.00555306038666, 28.458650165908569 ], [ 76.998731118236279, 28.46345471964829 ], [ 76.992153141692171, 28.468588222928336 ], [ 76.985834977676006, 28.474038308689657 ], [ 76.979791847198285, 28.479791847198289 ], [ 76.974038308689657, 28.485834977676006 ], [ 76.968588222928332, 28.492153141692182 ], [ 76.963454719648283, 28.498731118236286 ], [ 76.958650165908566, 28.505553060386667 ], [ 76.954186136299953, 28.512602533487154 ], [ 76.950073385060776, 28.519862554739582 ], [ 76.946321820169004, 28.527315634116853 ], [ 76.94294047947308, 28.534943816497936 ], [ 76.939937508918874, 28.542728724923325 ], [ 76.937320142925515, 28.550651604866744 ], [ 76.935094686956916, 28.558693369416446 ], [ 76.933266502331449, 28.566834645257259 ], [ 76.931839993305985, 28.575055819342591 ], [ 76.930818596465727, 28.583337086143978 ], [ 76.930204772445109, 28.591658495364339 ], [ 76.93, 28.6 ], [ 76.930204772445109, 28.608341504635664 ], [ 76.930818596465727, 28.616662913856025 ], [ 76.931839993305985, 28.624944180657412 ], [ 76.933266502331449, 28.633165354742744 ], [ 76.935094686956916, 28.641306630583557 ], [ 76.937320142925515, 28.649348395133259 ], [ 76.939937508918874, 28.657271275076678 ], [ 76.94294047947308, 28.665056183502067 ], [ 76.946321820169004, 28.67268436588315 ], [ 76.950073385060776, 28.680137445260421 ], [ 76.954186136299953, 28.687397466512849 ], [ 76.958650165908566, 28.694446939613336 ], [ 76.963454719648283, 28.701268881763717 ], [ 76.968588222928332, 28.707846858307821 ], [ 76.974038308689657, 28.714165022323996 ], [ 76.979791847198285, 28.720208152801714 ], [ 76.985834977676006, 28.725961691310346 ], [ 76.992153141692171, 28.731411777071667 ], [ 76.998731118236279, 28.736545280351713 ], [ 77.00555306038666, 28.741349834091434 ], [ 77.01260253348714, 28.74581386370005 ], [ 77.019862554739575, 28.749926614939223 ], [ 77.027315634116846, 28.753678179830988 ], [ 77.034943816497929, 28.757059520526919 ], [ 77.042728724923322, 28.760062491081115 ], [ 77.050651604866729, 28.762679857074477 ], [ 77.058693369416446, 28.764905313043077 ], [ 77.066834645257259, 28.76673349766855 ], [ 77.07505581934258, 28.768160006694014 ], [ 77.08333708614397, 28.769181403534276 ], [ 77.091658495364328, 28.76979522755488 ], [ 77.1, 28.77 ], [ 77.108341504635661, 28.76979522755488 ], [ 77.116662913856018, 28.769181403534276 ], [ 77.124944180657408, 28.768160006694014 ], [ 77.133165354742729, 28.76673349766855 ], [ 77.141306630583543, 28.764905313043077 ], [ 77.149348395133259, 28.762679857074477 ], [ 77.157271275076667, 28.760062491081115 ], [ 77.16505618350206, 28.757059520526919 ], [ 77.172684365883143, 28.753678179830988 ], [ 77.180137445260414, 28.749926614939223 ], [ 77.187397466512849, 28.74581386370005 ], [ 77.194446939613329, 28.741349834091434 ], [ 77.20126888176371, 28.736545280351713 ], [ 77.207846858307818, 28.731411777071667 ], [ 77.214165022323982, 28.725961691310346 ], [ 77.220208152801703, 28.720208152801714 ], [ 77.225961691310332, 28.714165022323996 ], [ 77.231411777071656, 28.707846858307821 ], [ 77.236545280351706, 28.701268881763717 ], [ 77.241349834091423, 28.694446939613336 ], [ 77.245813863700036, 28.687397466512849 ], [ 77.249926614939213, 28.680137445260421 ], [ 77.253678179830985, 28.67268436588315 ], [ 77.257059520526909, 28.665056183502067 ], [ 77.260062491081115, 28.657271275076678 ], [ 77.262679857074474, 28.649348395133259 ], [ 77.264905313043073, 28.641306630583557 ], [ 77.26673349766854, 28.633165354742744 ], [ 77.268160006694004, 28.624944180657412 ], [ 77.269181403534262, 28.616662913856025 ], [ 77.26979522755488, 28.608341504635664 ], [ 77.27, 28.6 ] ] ] } }
]
}
